ORBCOMM-X               
1 21576U 91050C   24328.24533939  .00000888  00000+0  27851-3 0  9992
2 21576  98.3722  32.7946 0004804  90.5619 269.6122 14.42929414752418
ORBCOMM FM01            
1 23545U 95017A   24328.02808326  .00016674  00000+0  19390-2 0  9996
2 23545  69.9647 226.5285 0007438 275.0783  84.9520 14.85354565581846
ORBCOMM FM02            
1 23546U 95017B   24328.02793016  .00018124  00000+0  21130-2 0  9993
2 23546  69.9664 246.2129 0009596 274.1965  85.8091 14.85212636581486
ORBCOMM FM08            
1 25112U 97084A   24328.25097155  .00004547  00000+0  13483-2 0  9992
2 25112  45.0136 275.4729 0007674 297.2303  62.7766 14.44354278411583
ORBCOMM FM10            
1 25113U 97084B   24328.34282675  .00004891  00000+0  14517-2 0  9997
2 25113  45.0149 277.0847 0005105 272.3845  87.6422 14.44212731586742
ORBCOMM FM11            
1 25114U 97084C   24328.45201041  .00004136  00000+0  12398-2 0  9995
2 25114  45.0132 276.8437 0005970 271.7429  88.2738 14.43990214411728
ORBCOMM FM12            
1 25115U 97084D   24328.34717756  .00004523  00000+0  13518-2 0  9994
2 25115  45.0142 277.1042 0004968 273.5294  86.4989 14.43993347411506
ORBCOMM FM09            
1 25116U 97084E   24328.36462724  .00004225  00000+0  12671-2 0  9997
2 25116  45.0146 277.7811 0005771 256.1585 103.8624 14.43925863411715
