<?xml version="1.0" encoding="UTF-8"?>
<ndm xmlns:xsi="http://www.w3.org/2001/XMLSchema-instance" xsi:noNamespaceSchemaLocation="https://sanaregistry.org/r/ndmxml_unqualified/ndmxml-2.0.0-master-2.0.xsd">
<omm id="CCSDS_OMM_VERS" version="2.0">
<header><CREATION_DATE/><ORIGINATOR/></header><body><segment><metadata><OBJECT_NAME>ORBCOMM-X</OBJECT_NAME><OBJECT_ID>1991-050C</OBJECT_ID><CENTER_NAME>EARTH</CENTER_NAME><REF_FRAME>TEME</REF_FRAME><TIME_SYSTEM>UTC</TIME_SYSTEM><MEAN_ELEMENT_THEORY>SGP4</MEAN_ELEMENT_THEORY></metadata><data><meanElements><EPOCH>2024-11-23T05:53:17.323296</EPOCH><MEAN_MOTION>14.42929414</MEAN_MOTION><ECCENTRICITY>.0004804</ECCENTRICITY><INCLINATION>98.3722</INCLINATION><RA_OF_ASC_NODE>32.7946</RA_OF_ASC_NODE><ARG_OF_PERICENTER>90.5619</ARG_OF_PERICENTER><MEAN_ANOMALY>269.6122</MEAN_ANOMALY></meanElements><tleParameters><EPHEMERIS_TYPE>0</EPHEMERIS_TYPE><CLASSIFICATION_TYPE>U</CLASSIFICATION_TYPE><NORAD_CAT_ID>21576</NORAD_CAT_ID><ELEMENT_SET_NO>999</ELEMENT_SET_NO><REV_AT_EPOCH>75241</REV_AT_EPOCH><BSTAR>.27851E-3</BSTAR><MEAN_MOTION_DOT>.888E-5</MEAN_MOTION_DOT><MEAN_MOTION_DDOT>0</MEAN_MOTION_DDOT></tleParameters></data></segment></body></omm>
<omm id="CCSDS_OMM_VERS" version="2.0">
<header><CREATION_DATE/><ORIGINATOR/></header><body><segment><metadata><OBJECT_NAME>ORBCOMM FM01</OBJECT_NAME><OBJECT_ID>1995-017A</OBJECT_ID><CENTER_NAME>EARTH</CENTER_NAME><REF_FRAME>TEME</REF_FRAME><TIME_SYSTEM>UTC</TIME_SYSTEM><MEAN_ELEMENT_THEORY>SGP4</MEAN_ELEMENT_THEORY></metadata><data><meanElements><EPOCH>2024-11-23T00:40:26.393664</EPOCH><MEAN_MOTION>14.85354565</MEAN_MOTION><ECCENTRICITY>.0007438</ECCENTRICITY><INCLINATION>69.9647</INCLINATION><RA_OF_ASC_NODE>226.5285</RA_OF_ASC_NODE><ARG_OF_PERICENTER>275.0783</ARG_OF_PERICENTER><MEAN_ANOMALY>84.9520</MEAN_ANOMALY></meanElements><tleParameters><EPHEMERIS_TYPE>0</EPHEMERIS_TYPE><CLASSIFICATION_TYPE>U</CLASSIFICATION_TYPE><NORAD_CAT_ID>23545</NORAD_CAT_ID><ELEMENT_SET_NO>999</ELEMENT_SET_NO><REV_AT_EPOCH>58184</REV_AT_EPOCH><BSTAR>.1939E-2</BSTAR><MEAN_MOTION_DOT>.16674E-3</MEAN_MOTION_DOT><MEAN_MOTION_DDOT>0</MEAN_MOTION_DDOT></tleParameters></data></segment></body></omm>
<omm id="CCSDS_OMM_VERS" version="2.0">
<header><CREATION_DATE/><ORIGINATOR/></header><body><segment><metadata><OBJECT_NAME>ORBCOMM FM02</OBJECT_NAME><OBJECT_ID>1995-017B</OBJECT_ID><CENTER_NAME>EARTH</CENTER_NAME><REF_FRAME>TEME</REF_FRAME><TIME_SYSTEM>UTC</TIME_SYSTEM><MEAN_ELEMENT_THEORY>SGP4</MEAN_ELEMENT_THEORY></metadata><data><meanElements><EPOCH>2024-11-23T00:40:13.165824</EPOCH><MEAN_MOTION>14.85212636</MEAN_MOTION><ECCENTRICITY>.0009596</ECCENTRICITY><INCLINATION>69.9664</INCLINATION><RA_OF_ASC_NODE>246.2129</RA_OF_ASC_NODE><ARG_OF_PERICENTER>274.1965</ARG_OF_PERICENTER><MEAN_ANOMALY>85.8091</MEAN_ANOMALY></meanElements><tleParameters><EPHEMERIS_TYPE>0</EPHEMERIS_TYPE><CLASSIFICATION_TYPE>U</CLASSIFICATION_TYPE><NORAD_CAT_ID>23546</NORAD_CAT_ID><ELEMENT_SET_NO>999</ELEMENT_SET_NO><REV_AT_EPOCH>58148</REV_AT_EPOCH><BSTAR>.2113E-2</BSTAR><MEAN_MOTION_DOT>.18124E-3</MEAN_MOTION_DOT><MEAN_MOTION_DDOT>0</MEAN_MOTION_DDOT></tleParameters></data></segment></body></omm>
<omm id="CCSDS_OMM_VERS" version="2.0">
<header><CREATION_DATE/><ORIGINATOR/></header><body><segment><metadata><OBJECT_NAME>ORBCOMM FM08</OBJECT_NAME><OBJECT_ID>1997-084A</OBJECT_ID><CENTER_NAME>EARTH</CENTER_NAME><REF_FRAME>TEME</REF_FRAME><TIME_SYSTEM>UTC</TIME_SYSTEM><MEAN_ELEMENT_THEORY>SGP4</MEAN_ELEMENT_THEORY></metadata><data><meanElements><EPOCH>2024-11-23T06:01:23.941920</EPOCH><MEAN_MOTION>14.44354278</MEAN_MOTION><ECCENTRICITY>.0007674</ECCENTRICITY><INCLINATION>45.0136</INCLINATION><RA_OF_ASC_NODE>275.4729</RA_OF_ASC_NODE><ARG_OF_PERICENTER>297.2303</ARG_OF_PERICENTER><MEAN_ANOMALY>62.7766</MEAN_ANOMALY></meanElements><tleParameters><EPHEMERIS_TYPE>0</EPHEMERIS_TYPE><CLASSIFICATION_TYPE>U</CLASSIFICATION_TYPE><NORAD_CAT_ID>25112</NORAD_CAT_ID><ELEMENT_SET_NO>999</ELEMENT_SET_NO><REV_AT_EPOCH>41158</REV_AT_EPOCH><BSTAR>.13483E-2</BSTAR><MEAN_MOTION_DOT>.4547E-4</MEAN_MOTION_DOT><MEAN_MOTION_DDOT>0</MEAN_MOTION_DDOT></tleParameters></data></segment></body></omm>
<omm id="CCSDS_OMM_VERS" version="2.0">
<header><CREATION_DATE/><ORIGINATOR/></header><body><segment><metadata><OBJECT_NAME>ORBCOMM FM10</OBJECT_NAME><OBJECT_ID>1997-084B</OBJECT_ID><CENTER_NAME>EARTH</CENTER_NAME><REF_FRAME>TEME</REF_FRAME><TIME_SYSTEM>UTC</TIME_SYSTEM><MEAN_ELEMENT_THEORY>SGP4</MEAN_ELEMENT_THEORY></metadata><data><meanElements><EPOCH>2024-11-23T08:13:40.231200</EPOCH><MEAN_MOTION>14.44212731</MEAN_MOTION><ECCENTRICITY>.0005105</ECCENTRICITY><INCLINATION>45.0149</INCLINATION><RA_OF_ASC_NODE>277.0847</RA_OF_ASC_NODE><ARG_OF_PERICENTER>272.3845</ARG_OF_PERICENTER><MEAN_ANOMALY>87.6422</MEAN_ANOMALY></meanElements><tleParameters><EPHEMERIS_TYPE>0</EPHEMERIS_TYPE><CLASSIFICATION_TYPE>U</CLASSIFICATION_TYPE><NORAD_CAT_ID>25113</NORAD_CAT_ID><ELEMENT_SET_NO>999</ELEMENT_SET_NO><REV_AT_EPOCH>58674</REV_AT_EPOCH><BSTAR>.14517E-2</BSTAR><MEAN_MOTION_DOT>.4891E-4</MEAN_MOTION_DOT><MEAN_MOTION_DDOT>0</MEAN_MOTION_DDOT></tleParameters></data></segment></body></omm>
<omm id="CCSDS_OMM_VERS" version="2.0">
<header><CREATION_DATE/><ORIGINATOR/></header><body><segment><metadata><OBJECT_NAME>ORBCOMM FM11</OBJECT_NAME><OBJECT_ID>1997-084C</OBJECT_ID><CENTER_NAME>EARTH</CENTER_NAME><REF_FRAME>TEME</REF_FRAME><TIME_SYSTEM>UTC</TIME_SYSTEM><MEAN_ELEMENT_THEORY>SGP4</MEAN_ELEMENT_THEORY></metadata><data><meanElements><EPOCH>2024-11-23T10:50:53.699424</EPOCH><MEAN_MOTION>14.43990214</MEAN_MOTION><ECCENTRICITY>.000597</ECCENTRICITY><INCLINATION>45.0132</INCLINATION><RA_OF_ASC_NODE>276.8437</RA_OF_ASC_NODE><ARG_OF_PERICENTER>271.7429</ARG_OF_PERICENTER><MEAN_ANOMALY>88.2738</MEAN_ANOMALY></meanElements><tleParameters><EPHEMERIS_TYPE>0</EPHEMERIS_TYPE><CLASSIFICATION_TYPE>U</CLASSIFICATION_TYPE><NORAD_CAT_ID>25114</NORAD_CAT_ID><ELEMENT_SET_NO>999</ELEMENT_SET_NO><REV_AT_EPOCH>41172</REV_AT_EPOCH><BSTAR>.12398E-2</BSTAR><MEAN_MOTION_DOT>.4136E-4</MEAN_MOTION_DOT><MEAN_MOTION_DDOT>0</MEAN_MOTION_DDOT></tleParameters></data></segment></body></omm>
<omm id="CCSDS_OMM_VERS" version="2.0">
<header><CREATION_DATE/><ORIGINATOR/></header><body><segment><metadata><OBJECT_NAME>ORBCOMM FM12</OBJECT_NAME><OBJECT_ID>1997-084D</OBJECT_ID><CENTER_NAME>EARTH</CENTER_NAME><REF_FRAME>TEME</REF_FRAME><TIME_SYSTEM>UTC</TIME_SYSTEM><MEAN_ELEMENT_THEORY>SGP4</MEAN_ELEMENT_THEORY></metadata><data><meanElements><EPOCH>2024-11-23T08:19:56.141184</EPOCH><MEAN_MOTION>14.43993347</MEAN_MOTION><ECCENTRICITY>.0004968</ECCENTRICITY><INCLINATION>45.0142</INCLINATION><RA_OF_ASC_NODE>277.1042</RA_OF_ASC_NODE><ARG_OF_PERICENTER>273.5294</ARG_OF_PERICENTER><MEAN_ANOMALY>86.4989</MEAN_ANOMALY></meanElements><tleParameters><EPHEMERIS_TYPE>0</EPHEMERIS_TYPE><CLASSIFICATION_TYPE>U</CLASSIFICATION_TYPE><NORAD_CAT_ID>25115</NORAD_CAT_ID><ELEMENT_SET_NO>999</ELEMENT_SET_NO><REV_AT_EPOCH>41150</REV_AT_EPOCH><BSTAR>.13518E-2</BSTAR><MEAN_MOTION_DOT>.4523E-4</MEAN_MOTION_DOT><MEAN_MOTION_DDOT>0</MEAN_MOTION_DDOT></tleParameters></data></segment></body></omm>
<omm id="CCSDS_OMM_VERS" version="2.0">
<header><CREATION_DATE/><ORIGINATOR/></header><body><segment><metadata><OBJECT_NAME>ORBCOMM FM09</OBJECT_NAME><OBJECT_ID>1997-084E</OBJECT_ID><CENTER_NAME>EARTH</CENTER_NAME><REF_FRAME>TEME</REF_FRAME><TIME_SYSTEM>UTC</TIME_SYSTEM><MEAN_ELEMENT_THEORY>SGP4</MEAN_ELEMENT_THEORY></metadata><data><meanElements><EPOCH>2024-11-23T08:45:03.793536</EPOCH><MEAN_MOTION>14.43925863</MEAN_MOTION><ECCENTRICITY>.0005771</ECCENTRICITY><INCLINATION>45.0146</INCLINATION><RA_OF_ASC_NODE>277.7811</RA_OF_ASC_NODE><ARG_OF_PERICENTER>256.1585</ARG_OF_PERICENTER><MEAN_ANOMALY>103.8624</MEAN_ANOMALY></meanElements><tleParameters><EPHEMERIS_TYPE>0</EPHEMERIS_TYPE><CLASSIFICATION_TYPE>U</CLASSIFICATION_TYPE><NORAD_CAT_ID>25116</NORAD_CAT_ID><ELEMENT_SET_NO>999</ELEMENT_SET_NO><REV_AT_EPOCH>41171</REV_AT_EPOCH><BSTAR>.12671E-2</BSTAR><MEAN_MOTION_DOT>.4225E-4</MEAN_MOTION_DOT><MEAN_MOTION_DDOT>0</MEAN_MOTION_DDOT></tleParameters></data></segment></body></omm>

</ndm>
